STARLINK-35536          
1 66261U 25245AD  26076.75826591  .00011150  00000+0  38817-3 0  9990
2 66261  53.1569 246.2835 0001197  92.4077 267.7061 15.30188226 22491
STARLINK-35487          
1 66262U 25245AE  26077.15543038  .00016140  00000+0  55574-3 0  9991
2 66262  53.1552 244.4902 0000861  61.6708 298.4380 15.30206554 22507
STARLINK-35801          
1 66265U 25247A   26077.54697554  .00021593  00000+0  73913-3 0  9997
2 66265  53.1578 150.0296 0001100  85.6810 274.4316 15.30197144 22397
STARLINK-35056          
1 66266U 25247B   26077.50170605  .00011863  00000+0  41179-3 0  9995
2 66266  53.1573 150.4570 0001224  88.9216 271.1925 15.30217180 22387
STARLINK-35550          
1 66267U 25247C   26077.61333696  .00009377  00000+0  32830-3 0  9990
2 66267  53.1577 149.6871 0001508  78.6583 281.4587 15.30201907 22405
STARLINK-35069          
1 66268U 25247D   26077.46383351  .00020441  00000+0  70006-3 0  9999
2 66268  53.1620 150.9308 0001549  92.8369 267.2809 15.30213993 22373
STARLINK-34910          
1 66269U 25247E   26077.56807277  .00009979  00000+0  34857-3 0  9996
2 66269  53.1574 150.1125 0001217  72.6327 287.4807 15.30202884 22394
STARLINK-35757          
1 66270U 25247F   26077.49222619  .00013948  00000+0  48259-3 0  9993
2 66270  53.1564 150.3961 0002307 111.0545 249.0703 15.30170057 22436
STARLINK-35745          
1 66271U 25247G   26077.39008595 -.00005119  00000+0 -16102-3 0  9993
2 66271  53.1587 151.1798 0001120 111.3168 248.7952 15.30164129 22418
STARLINK-35741          
1 66272U 25247H   26077.60384797  .00026411  00000+0  90077-3 0  9998
2 66272  53.1593 149.6731 0001212  82.4935 277.6204 15.30196967 22457
STARLINK-35730          
1 66273U 25247J   26077.48693557  .00011723  00000+0  40728-3 0  9990
2 66273  53.1580 150.3624 0001081  89.0594 271.0531 15.30201887 22439
STARLINK-35760          
1 66274U 25247K   26077.52492873  .00018710  00000+0  64240-3 0  9992
2 66274  53.1601 150.5981 0001643  35.7127 324.3983 15.30191556 22384
STARLINK-35752          
1 66275U 25247L   26077.58179826  .00022386  00000+0  76543-3 0  9992
2 66275  53.1621 150.2403 0001387  90.8718 269.2442 15.30209276 22393
STARLINK-35742          
1 66276U 25247M   26077.57229789  .00014381  00000+0  49665-3 0  9997
2 66276  53.1589 150.1817 0000645 148.7530 211.3509 15.30204160 22441
STARLINK-35708          
1 66277U 25247N   26077.62811908  .00016085  00000+0  55403-3 0  9994
2 66277  53.1574 149.8195 0001062  75.8840 284.2279 15.30198870 22452
STARLINK-35713          
1 66278U 25247P   26077.46899609  .00018138  00000+0  62287-3 0  9990
2 66278  53.1611 150.2514 0001348  82.8884 277.2270 15.30207348 22431
