[{"OBJECT_NAME":"STARLINK-35536","OBJECT_ID":"2025-245AD","EPOCH":"2026-03-17T18:11:54.174624","MEAN_MOTION":15.30188226,"ECCENTRICITY":0.00011977,"INCLINATION":53.1569,"RA_OF_ASC_NODE":246.2835,"ARG_OF_PERICENTER":92.4077,"MEAN_ANOMALY":267.7061,"EPHEMERIS_TYPE":0,"CLASSIFICATION_TYPE":"U","NORAD_CAT_ID":66261,"ELEMENT_SET_NO":999,"REV_AT_EPOCH":2249,"BSTAR":0.00038816987,"MEAN_MOTION_DOT":0.0001115,"MEAN_MOTION_DDOT":0},{"OBJECT_NAME":"STARLINK-35487","OBJECT_ID":"2025-245AE","EPOCH":"2026-03-18T03:43:49.184832","MEAN_MOTION":15.30206554,"ECCENTRICITY":8.613e-5,"INCLINATION":53.1552,"RA_OF_ASC_NODE":244.4902,"ARG_OF_PERICENTER":61.6708,"MEAN_ANOMALY":298.438,"EPHEMERIS_TYPE":0,"CLASSIFICATION_TYPE":"U","NORAD_CAT_ID":66262,"ELEMENT_SET_NO":999,"REV_AT_EPOCH":2250,"BSTAR":0.00055574211,"MEAN_MOTION_DOT":0.0001614,"MEAN_MOTION_DDOT":0},{"OBJECT_NAME":"STARLINK-35801","OBJECT_ID":"2025-247A","EPOCH":"2026-03-18T13:07:38.686656","MEAN_MOTION":15.30197144,"ECCENTRICITY":0.00011006,"INCLINATION":53.1578,"RA_OF_ASC_NODE":150.0296,"ARG_OF_PERICENTER":85.681,"MEAN_ANOMALY":274.4316,"EPHEMERIS_TYPE":0,"CLASSIFICATION_TYPE":"U","NORAD_CAT_ID":66265,"ELEMENT_SET_NO":999,"REV_AT_EPOCH":2239,"BSTAR":0.00073912913,"MEAN_MOTION_DOT":0.00021593,"MEAN_MOTION_DDOT":0},{"OBJECT_NAME":"STARLINK-35056","OBJECT_ID":"2025-247B","EPOCH":"2026-03-18T12:02:27.402720","MEAN_MOTION":15.3021718,"ECCENTRICITY":0.00012249,"INCLINATION":53.1573,"RA_OF_ASC_NODE":150.457,"ARG_OF_PERICENTER":88.9216,"MEAN_ANOMALY":271.1925,"EPHEMERIS_TYPE":0,"CLASSIFICATION_TYPE":"U","NORAD_CAT_ID":66266,"ELEMENT_SET_NO":999,"REV_AT_EPOCH":2238,"BSTAR":0.0004117928,"MEAN_MOTION_DOT":0.00011863,"MEAN_MOTION_DDOT":0},{"OBJECT_NAME":"STARLINK-35550","OBJECT_ID":"2025-247C","EPOCH":"2026-03-18T14:43:12.313344","MEAN_MOTION":15.30201907,"ECCENTRICITY":0.00015083,"INCLINATION":53.1577,"RA_OF_ASC_NODE":149.6871,"ARG_OF_PERICENTER":78.6583,"MEAN_ANOMALY":281.4587,"EPHEMERIS_TYPE":0,"CLASSIFICATION_TYPE":"U","NORAD_CAT_ID":66267,"ELEMENT_SET_NO":999,"REV_AT_EPOCH":2240,"BSTAR":0.00032830059,"MEAN_MOTION_DOT":9.377e-5,"MEAN_MOTION_DDOT":0},{"OBJECT_NAME":"STARLINK-35069","OBJECT_ID":"2025-247D","EPOCH":"2026-03-18T11:07:55.215264","MEAN_MOTION":15.30213993,"ECCENTRICITY":0.00015492,"INCLINATION":53.162,"RA_OF_ASC_NODE":150.9308,"ARG_OF_PERICENTER":92.8369,"MEAN_ANOMALY":267.2809,"EPHEMERIS_TYPE":0,"CLASSIFICATION_TYPE":"U","NORAD_CAT_ID":66268,"ELEMENT_SET_NO":999,"REV_AT_EPOCH":2237,"BSTAR":0.00070006055,"MEAN_MOTION_DOT":0.00020441,"MEAN_MOTION_DDOT":0},{"OBJECT_NAME":"STARLINK-34910","OBJECT_ID":"2025-247E","EPOCH":"2026-03-18T13:38:01.487328","MEAN_MOTION":15.30202884,"ECCENTRICITY":0.0001217,"INCLINATION":53.1574,"RA_OF_ASC_NODE":150.1125,"ARG_OF_PERICENTER":72.6327,"MEAN_ANOMALY":287.4807,"EPHEMERIS_TYPE":0,"CLASSIFICATION_TYPE":"U","NORAD_CAT_ID":66269,"ELEMENT_SET_NO":999,"REV_AT_EPOCH":2239,"BSTAR":0.00034857411,"MEAN_MOTION_DOT":9.979e-5,"MEAN_MOTION_DDOT":0},{"OBJECT_NAME":"STARLINK-35757","OBJECT_ID":"2025-247F","EPOCH":"2026-03-18T11:48:48.342816","MEAN_MOTION":15.30170057,"ECCENTRICITY":0.00023072,"INCLINATION":53.1564,"RA_OF_ASC_NODE":150.3961,"ARG_OF_PERICENTER":111.0545,"MEAN_ANOMALY":249.0703,"EPHEMERIS_TYPE":0,"CLASSIFICATION_TYPE":"U","NORAD_CAT_ID":66270,"ELEMENT_SET_NO":999,"REV_AT_EPOCH":2243,"BSTAR":0.00048259488,"MEAN_MOTION_DOT":0.00013948,"MEAN_MOTION_DDOT":0},{"OBJECT_NAME":"STARLINK-35745","OBJECT_ID":"2025-247G","EPOCH":"2026-03-18T09:21:43.426080","MEAN_MOTION":15.30164129,"ECCENTRICITY":0.00011203,"INCLINATION":53.1587,"RA_OF_ASC_NODE":151.1798,"ARG_OF_PERICENTER":111.3168,"MEAN_ANOMALY":248.7952,"EPHEMERIS_TYPE":0,"CLASSIFICATION_TYPE":"U","NORAD_CAT_ID":66271,"ELEMENT_SET_NO":999,"REV_AT_EPOCH":2241,"BSTAR":-0.00016101843,"MEAN_MOTION_DOT":-5.119e-5,"MEAN_MOTION_DDOT":0},{"OBJECT_NAME":"STARLINK-35741","OBJECT_ID":"2025-247H","EPOCH":"2026-03-18T14:29:32.464608","MEAN_MOTION":15.30196967,"ECCENTRICITY":0.00012124,"INCLINATION":53.1593,"RA_OF_ASC_NODE":149.6731,"ARG_OF_PERICENTER":82.4935,"MEAN_ANOMALY":277.6204,"EPHEMERIS_TYPE":0,"CLASSIFICATION_TYPE":"U","NORAD_CAT_ID":66272,"ELEMENT_SET_NO":999,"REV_AT_EPOCH":2245,"BSTAR":0.00090076986,"MEAN_MOTION_DOT":0.00026411,"MEAN_MOTION_DDOT":0},{"OBJECT_NAME":"STARLINK-35730","OBJECT_ID":"2025-247J","EPOCH":"2026-03-18T11:41:11.233248","MEAN_MOTION":15.30201887,"ECCENTRICITY":0.00010817,"INCLINATION":53.158,"RA_OF_ASC_NODE":150.3624,"ARG_OF_PERICENTER":89.0594,"MEAN_ANOMALY":271.0531,"EPHEMERIS_TYPE":0,"CLASSIFICATION_TYPE":"U","NORAD_CAT_ID":66273,"ELEMENT_SET_NO":999,"REV_AT_EPOCH":2243,"BSTAR":0.00040727578,"MEAN_MOTION_DOT":0.00011723,"MEAN_MOTION_DDOT":0},{"OBJECT_NAME":"STARLINK-35760","OBJECT_ID":"2025-247K","EPOCH":"2026-03-18T12:35:53.842272","MEAN_MOTION":15.30191556,"ECCENTRICITY":0.00016434,"INCLINATION":53.1601,"RA_OF_ASC_NODE":150.5981,"ARG_OF_PERICENTER":35.7127,"MEAN_ANOMALY":324.3983,"EPHEMERIS_TYPE":0,"CLASSIFICATION_TYPE":"U","NORAD_CAT_ID":66274,"ELEMENT_SET_NO":999,"REV_AT_EPOCH":2238,"BSTAR":0.00064240165,"MEAN_MOTION_DOT":0.0001871,"MEAN_MOTION_DDOT":0},{"OBJECT_NAME":"STARLINK-35752","OBJECT_ID":"2025-247L","EPOCH":"2026-03-18T13:57:47.369664","MEAN_MOTION":15.30209276,"ECCENTRICITY":0.00013876,"INCLINATION":53.1621,"RA_OF_ASC_NODE":150.2403,"ARG_OF_PERICENTER":90.8718,"MEAN_ANOMALY":269.2442,"EPHEMERIS_TYPE":0,"CLASSIFICATION_TYPE":"U","NORAD_CAT_ID":66275,"ELEMENT_SET_NO":999,"REV_AT_EPOCH":2239,"BSTAR":0.00076543229,"MEAN_MOTION_DOT":0.00022386,"MEAN_MOTION_DDOT":0},{"OBJECT_NAME":"STARLINK-35742","OBJECT_ID":"2025-247M","EPOCH":"2026-03-18T13:44:06.537696","MEAN_MOTION":15.3020416,"ECCENTRICITY":6.453e-5,"INCLINATION":53.1589,"RA_OF_ASC_NODE":150.1817,"ARG_OF_PERICENTER":148.753,"MEAN_ANOMALY":211.3509,"EPHEMERIS_TYPE":0,"CLASSIFICATION_TYPE":"U","NORAD_CAT_ID":66276,"ELEMENT_SET_NO":999,"REV_AT_EPOCH":2244,"BSTAR":0.00049665,"MEAN_MOTION_DOT":0.00014381,"MEAN_MOTION_DDOT":0},{"OBJECT_NAME":"STARLINK-35708","OBJECT_ID":"2025-247N","EPOCH":"2026-03-18T15:04:29.488512","MEAN_MOTION":15.3019887,"ECCENTRICITY":0.0001062,"INCLINATION":53.1574,"RA_OF_ASC_NODE":149.8195,"ARG_OF_PERICENTER":75.884,"MEAN_ANOMALY":284.2279,"EPHEMERIS_TYPE":0,"CLASSIFICATION_TYPE":"U","NORAD_CAT_ID":66277,"ELEMENT_SET_NO":999,"REV_AT_EPOCH":2245,"BSTAR":0.00055402645,"MEAN_MOTION_DOT":0.00016085,"MEAN_MOTION_DDOT":0},{"OBJECT_NAME":"STARLINK-35713","OBJECT_ID":"2025-247P","EPOCH":"2026-03-18T11:15:21.262176","MEAN_MOTION":15.30207348,"ECCENTRICITY":0.00013486,"INCLINATION":53.1611,"RA_OF_ASC_NODE":150.2514,"ARG_OF_PERICENTER":82.8884,"MEAN_ANOMALY":277.227,"EPHEMERIS_TYPE":0,"CLASSIFICATION_TYPE":"U","NORAD_CAT_ID":66278,"ELEMENT_SET_NO":999,"REV_AT_EPOCH":2243,"BSTAR":0.00062286953,"MEAN_MOTION_DOT":0.00018138,"MEAN_MOTION_DDOT":0}]
